1 29155U 06018A   12043.17928691 -.00000257  00000-0  10000-3 0  9483
2 29155 000.4258 080.6804 0002237 315.9874 094.8741 01.00267852 20983